FENGYUN 1C DEB          
1 30432U 99025AET 17346.31618383  .00000300  00000-0  12183-3 0  9992
2 30432  98.8430 108.7031 0092000 272.2574 116.8803 14.32741221568706
